[{"OBJECT_NAME":"STARLINK-1724","OBJECT_ID":"2020-062BC","EPOCH":"2026-03-09T21:09:06.323616","MEAN_MOTION":15.52994502,"ECCENTRICITY":6.461e-5,"INCLINATION":53.03,"RA_OF_ASC_NODE":286.312,"ARG_OF_PERICENTER":290.0193,"MEAN_ANOMALY":70.0747,"EPHEMERIS_TYPE":0,"CLASSIFICATION_TYPE":"U","NORAD_CAT_ID":46375,"ELEMENT_SET_NO":999,"REV_AT_EPOCH":30559,"BSTAR":0.0019221523,"MEAN_MOTION_DOT":0.00123399,"MEAN_MOTION_DDOT":0},{"OBJECT_NAME":"MANDRAKE 2 BAKER","OBJECT_ID":"2021-059AF","EPOCH":"2026-03-09T11:46:50.097504","MEAN_MOTION":15.543506,"ECCENTRICITY":0.00037264,"INCLINATION":97.7034,"RA_OF_ASC_NODE":253.2235,"ARG_OF_PERICENTER":1.3892,"MEAN_ANOMALY":358.7371,"EPHEMERIS_TYPE":0,"CLASSIFICATION_TYPE":"U","NORAD_CAT_ID":48908,"ELEMENT_SET_NO":999,"REV_AT_EPOCH":26178,"BSTAR":0.00042709864,"MEAN_MOTION_DOT":0.00027921,"MEAN_MOTION_DDOT":0}]
