STARLINK-1724           
1 46375U 20062BC  26068.88132318  .00123399  00000+0  19222-2 0  9995
2 46375  53.0300 286.3120 0000646 290.0193  70.0747 15.52994502305599
MANDRAKE 2 BAKER        
1 48908U 21059AF  26068.49085761  .00027921  00000+0  42710-3 0  9995
2 48908  97.7034 253.2235 0003726   1.3892 358.7371 15.54350600261781
